{
  "type": "FeatureCollection",
  "features": [
    {
      "type": "Feature",
      "properties": {
        "norad_id": 54259,
        "name": "EUTELSAT 10B",
        "group": "eutelsat",
        "lat": 0.049049449308830616,
        "lon": 154.369478139613,
        "alt_km": 35783.67145688672,
        "timestamp": "2025-12-15T04:01:20.114566+00:00",
        "meta_object_name": "EUTELSAT 10B",
        "meta_object_id": "2022-157A",
        "meta_epoch": "2025-12-14T06:37:06.540096",
        "meta_mean_motion": 1.00270811,
        "meta_eccentricity": 6.513e-05,
        "meta_inclination": 0.0605,
        "meta_ra_of_asc_node": 99.7005,
        "meta_arg_of_pericenter": 36.6722,
        "meta_mean_anomaly": 56.0718,
        "meta_ephemeris_type": 0,
        "meta_classification_type": "U",
        "meta_norad_cat_id": 54259,
        "meta_element_set_no": 999,
        "meta_rev_at_epoch": 1117,
        "meta_bstar": 0,
        "meta_mean_motion_dot": 8.6e-07,
        "meta_mean_motion_ddot": 0,
        "tle_line1": "1 54259U 22157A   25348.27577014  .00000086  00000+0  00000+0 0  9999",
        "tle_line2": "2 54259   0.0605  99.7005 0000651  36.6722  56.0718  1.00270811 11173"
      },
      "geometry": {
        "type": "Point",
        "coordinates": [
          154.369478139613,
          0.049049449308830616
        ]
      }
    },
    {
      "type": "Feature",
      "properties": {
        "norad_id": 59346,
        "name": "EUTELSAT 36D",
        "group": "eutelsat",
        "lat": -0.009342377523847298,
        "lon": -179.77229498991886,
        "alt_km": 35788.12467513613,
        "timestamp": "2025-12-15T04:01:20.114578+00:00",
        "meta_object_name": "EUTELSAT 36D",
        "meta_object_id": "2024-059A",
        "meta_epoch": "2025-12-14T06:44:28.335264",
        "meta_mean_motion": 1.0027022,
        "meta_eccentricity": 4.127e-05,
        "meta_inclination": 0.021,
        "meta_ra_of_asc_node": 354.4885,
        "meta_arg_of_pericenter": 11.5594,
        "meta_mean_anomaly": 214.1043,
        "meta_ephemeris_type": 0,
        "meta_classification_type": "U",
        "meta_norad_cat_id": 59346,
        "meta_element_set_no": 999,
        "meta_rev_at_epoch": 629,
        "meta_bstar": 0,
        "meta_mean_motion_dot": 0,
        "meta_mean_motion_ddot": 0,
        "tle_line1": "1 59346U 24059A   25348.28088351  .00000000  00000+0  00000+0 0  9992",
        "tle_line2": "2 59346   0.0210 354.4885 0000412  11.5594 214.1043  1.00270220  6297"
      },
      "geometry": {
        "type": "Point",
        "coordinates": [
          -179.77229498991886,
          -0.009342377523847298
        ]
      }
    }
  ]
}